start=new Date('2022-10-16T00:00:00.000Z').valueOf();
sats=[{"REV_AT_EPOCH":"13168","DECAY_DATE":null,"TLE_LINE2":"2 45689  53.0532 229.2735 0001389  94.2664 265.8483 15.06414034131687","REF_FRAME":"TEME","OBJECT_NAME":"STARLINK-1413","TLE_LINE1":"1 45689U 20035AJ  22288.33680509  .00005284  00000-0  37324-3 0  9999","TIME_SYSTEM":"UTC","PERIAPSIS":"546.209","COUNTRY_CODE":"US","OBJECT_TYPE":"PAYLOAD","LAUNCH_DATE":"2020-06-04","CENTER_NAME":"EARTH","RCS_SIZE":"LARGE","INCLINATION":"53.0532","MEAN_ELEMENT_THEORY":"SGP4","MEAN_MOTION":"15.06414034","GP_ID":"215203142","NORAD_CAT_ID":"45689","BSTAR":"0.00037324000000","MEAN_MOTION_DDOT":"0.0000000000000","OBJECT_ID":"2020-035AJ","ELEMENT_SET_NO":"999","EPOCH":"2022-10-15T08:04:59.959776","SITE":"AFETR","MEAN_MOTION_DOT":"0.00005284","ARG_OF_PERICENTER":"94.2664","EPHEMERIS_TYPE":"0","SEMIMAJOR_AXIS":"6925.306","RA_OF_ASC_NODE":"229.2735","MEAN_ANOMALY":"265.8483","FILE":"3614916","PERIOD":"95.591","CLASSIFICATION_TYPE":"U","ECCENTRICITY":"0.00013890","APOAPSIS":"548.132"},{"MEAN_ELEMENT_THEORY":"SGP4","INCLINATION":"52.9986","MEAN_MOTION":"15.05581571","GP_ID":"215215652","NORAD_CAT_ID":"45690","BSTAR":"-0.00030387000000","MEAN_MOTION_DDOT":"0.0000000000000","ELEMENT_SET_NO":"999","OBJECT_ID":"2020-035AK","TLE_LINE1":"1 45690U 20035AK  22288.84467072 -.00004704  00000-0 -30387-3 0  9995","OBJECT_NAME":"STARLINK-1414","DECAY_DATE":null,"REV_AT_EPOCH":"13138","TLE_LINE2":"2 45690  52.9986 227.0012 0001575  96.5285 263.5882 15.05581571131380","REF_FRAME":"TEME","COUNTRY_CODE":"US","TIME_SYSTEM":"UTC","PERIAPSIS":"548.632","LAUNCH_DATE":"2020-06-04","OBJECT_TYPE":"PAYLOAD","RCS_SIZE":"LARGE","CENTER_NAME":"EARTH","EPHEMERIS_TYPE":"0","SEMIMAJOR_AXIS":"6927.858","FILE":"3615193","RA_OF_ASC_NODE":"227.0012","MEAN_ANOMALY":"263.5882","APOAPSIS":"550.814","CLASSIFICATION_TYPE":"U","PERIOD":"95.644","ECCENTRICITY":"0.00015750","EPOCH":"2022-10-15T20:16:19.550208","SITE":"AFETR","MEAN_MOTION_DOT":"-0.00004704","ARG_OF_PERICENTER":"96.5285"},{"MEAN_MOTION_DOT":"0.00000860","ARG_OF_PERICENTER":"83.3755","SITE":"AFETR","EPOCH":"2022-10-15T20:28:04.648512","PERIOD":"95.592","CLASSIFICATION_TYPE":"U","ECCENTRICITY":"0.00012650","APOAPSIS":"548.097","RA_OF_ASC_NODE":"226.9508","MEAN_ANOMALY":"276.7378","FILE":"3615579","EPHEMERIS_TYPE":"0","SEMIMAJOR_AXIS":"6925.356","RCS_SIZE":"LARGE","CENTER_NAME":"EARTH","OBJECT_TYPE":"PAYLOAD","LAUNCH_DATE":"2020-06-04","PERIAPSIS":"546.345","TIME_SYSTEM":"UTC","COUNTRY_CODE":"US","DECAY_DATE":null,"REV_AT_EPOCH":"13184","REF_FRAME":"TEME","TLE_LINE2":"2 45691  53.0545 226.9508 0001265  83.3755 276.7378 15.06397616131847","TLE_LINE1":"1 45691U 20035AL  22288.85283158  .00000860  00000-0  76590-4 0  9992","OBJECT_NAME":"STARLINK-1415","OBJECT_ID":"2020-035AL","ELEMENT_SET_NO":"999","NORAD_CAT_ID":"45691","BSTAR":"0.00007659000000","MEAN_MOTION_DDOT":"0.0000000000000","MEAN_MOTION":"15.06397616","GP_ID":"215224558","INCLINATION":"53.0545","MEAN_ELEMENT_THEORY":"SGP4"},{"TLE_LINE2":"2 45692  53.0555 226.9742 0001594  86.3196 273.7976 15.06412182131449","REF_FRAME":"TEME","DECAY_DATE":null,"REV_AT_EPOCH":"13144","OBJECT_NAME":"STARLINK-1416","TLE_LINE1":"1 45692U 20035AM  22288.84545122  .00001359  00000-0  11007-3 0  9999","TIME_SYSTEM":"UTC","PERIAPSIS":"546.072","COUNTRY_CODE":"US","OBJECT_TYPE":"PAYLOAD","LAUNCH_DATE":"2020-06-04","CENTER_NAME":"EARTH","RCS_SIZE":"LARGE","INCLINATION":"53.0555","MEAN_ELEMENT_THEORY":"SGP4","GP_ID":"215215651","MEAN_MOTION":"15.06412182","MEAN_MOTION_DDOT":"0.0000000000000","BSTAR":"0.00011007000000","NORAD_CAT_ID":"45692","OBJECT_ID":"2020-035AM","ELEMENT_SET_NO":"999","EPOCH":"2022-10-15T20:17:26.985408","SITE":"AFETR","ARG_OF_PERICENTER":"86.3196","MEAN_MOTION_DOT":"0.00001359","SEMIMAJOR_AXIS":"6925.311","EPHEMERIS_TYPE":"0","MEAN_ANOMALY":"273.7976","RA_OF_ASC_NODE":"226.9742","FILE":"3615193","PERIOD":"95.591","CLASSIFICATION_TYPE":"U","ECCENTRICITY":"0.00015940","APOAPSIS":"548.280"},{"APOAPSIS":"548.174","PERIOD":"95.592","ECCENTRICITY":"0.00014020","CLASSIFICATION_TYPE":"U","FILE":"3614916","RA_OF_ASC_NODE":"229.5963","MEAN_ANOMALY":"267.2656","EPHEMERIS_TYPE":"0","SEMIMAJOR_AXIS":"6925.338","MEAN_MOTION_DOT":"0.00001624","ARG_OF_PERICENTER":"92.8494","SITE":"AFETR","EPOCH":"2022-10-15T06:24:08.929728","ELEMENT_SET_NO":"999","OBJECT_ID":"2020-035AN","NORAD_CAT_ID":"45693","MEAN_MOTION_DDOT":"0.0000000000000","BSTAR":"0.00012788000000","MEAN_MOTION":"15.06403558","GP_ID":"215202644","MEAN_ELEMENT_THEORY":"SGP4","INCLINATION":"53.0549","CENTER_NAME":"EARTH","RCS_SIZE":"LARGE","LAUNCH_DATE":"2020-06-04","OBJECT_TYPE":"PAYLOAD","COUNTRY_CODE":"US","TIME_SYSTEM":"UTC","PERIAPSIS":"546.232","TLE_LINE1":"1 45693U 20035AN  22288.26677002  .00001624  00000-0  12788-3 0  9991","OBJECT_NAME":"STARLINK-1417","DECAY_DATE":null,"REV_AT_EPOCH":"13175","REF_FRAME":"TEME","TLE_LINE2":"2 45693  53.0549 229.5963 0001402  92.8494 267.2656 15.06403558131752"},{"APOAPSIS":"541.146","PERIOD":"95.435","CLASSIFICATION_TYPE":"U","ECCENTRICITY":"0.00022230","FILE":"3614916","MEAN_ANOMALY":"263.7641","RA_OF_ASC_NODE":"227.7375","SEMIMAJOR_AXIS":"6917.743","EPHEMERIS_TYPE":"0","ARG_OF_PERICENTER":"96.3602","MEAN_MOTION_DOT":"0.00027680","SITE":"AFETR","EPOCH":"2022-10-15T13:18:39.135168","ELEMENT_SET_NO":"999","OBJECT_ID":"2020-035AP","MEAN_MOTION_DDOT":"0.0000000000000","BSTAR":"0.00174810000000","NORAD_CAT_ID":"45694","GP_ID":"215202893","MEAN_MOTION":"15.08885002","MEAN_ELEMENT_THEORY":"SGP4","INCLINATION":"53.0519","CENTER_NAME":"EARTH","RCS_SIZE":"LARGE","LAUNCH_DATE":"2020-06-04","OBJECT_TYPE":"PAYLOAD","COUNTRY_CODE":"US","TIME_SYSTEM":"UTC","PERIAPSIS":"538.070","OBJECT_NAME":"STARLINK-1419","TLE_LINE1":"1 45694U 20035AP  22288.55461962  .00027680  00000-0  17481-2 0  9994","TLE_LINE2":"2 45694  53.0519 227.7375 0002223  96.3602 263.7641 15.08885002131800","REF_FRAME":"TEME","REV_AT_EPOCH":"13180","DECAY_DATE":null},{"DECAY_DATE":null,"REV_AT_EPOCH":"13212","TLE_LINE2":"2 45695  53.0559 207.1873 0001519  82.7513 277.3649 15.06402552132125","REF_FRAME":"TEME","OBJECT_NAME":"STARLINK-1420","TLE_LINE1":"1 45695U 20035AQ  22288.79844291  .00000764  00000-0  70188-4 0  9990","TIME_SYSTEM":"UTC","PERIAPSIS":"546.154","COUNTRY_CODE":"US","OBJECT_TYPE":"PAYLOAD","LAUNCH_DATE":"2020-06-04","CENTER_NAME":"EARTH","RCS_SIZE":"LARGE","INCLINATION":"53.0559","MEAN_ELEMENT_THEORY":"SGP4","MEAN_MOTION":"15.06402552","GP_ID":"215244577","NORAD_CAT_ID":"45695","BSTAR":"0.00007018800000","MEAN_MOTION_DDOT":"0.0000000000000","OBJECT_ID":"2020-035AQ","ELEMENT_SET_NO":"999","EPOCH":"2022-10-15T19:09:45.467424","SITE":"AFETR","MEAN_MOTION_DOT":"0.00000764","ARG_OF_PERICENTER":"82.7513","EPHEMERIS_TYPE":"0","SEMIMAJOR_AXIS":"6925.341","RA_OF_ASC_NODE":"207.1873","MEAN_ANOMALY":"277.3649","FILE":"3615679","PERIOD":"95.592","CLASSIFICATION_TYPE":"U","ECCENTRICITY":"0.00015190","APOAPSIS":"548.258"},{"FILE":"3615679","MEAN_ANOMALY":"282.7613","RA_OF_ASC_NODE":"227.1396","SEMIMAJOR_AXIS":"6925.344","EPHEMERIS_TYPE":"0","APOAPSIS":"548.147","CLASSIFICATION_TYPE":"U","PERIOD":"95.592","ECCENTRICITY":"0.00013540","EPOCH":"2022-10-15T19:24:22.943232","ARG_OF_PERICENTER":"77.3527","MEAN_MOTION_DOT":"0.00001237","SITE":"AFETR","GP_ID":"215244828","MEAN_MOTION":"15.06401532","MEAN_ELEMENT_THEORY":"SGP4","INCLINATION":"53.0539","ELEMENT_SET_NO":"999","OBJECT_ID":"2020-035AR","MEAN_MOTION_DDOT":"0.0000000000000","BSTAR":"0.00010191000000","NORAD_CAT_ID":"45696","COUNTRY_CODE":"US","TIME_SYSTEM":"UTC","PERIAPSIS":"546.271","OBJECT_NAME":"STARLINK-1422","TLE_LINE1":"1 45696U 20035AR  22288.80859888  .00001237  00000-0  10191-3 0  9994","REF_FRAME":"TEME","TLE_LINE2":"2 45696  53.0539 227.1396 0001354  77.3527 282.7613 15.06401532131833","DECAY_DATE":null,"REV_AT_EPOCH":"13183","RCS_SIZE":"LARGE","CENTER_NAME":"EARTH","LAUNCH_DATE":"2020-06-04","OBJECT_TYPE":"PAYLOAD"},{"RA_OF_ASC_NODE":"210.5462","MEAN_ANOMALY":"264.4873","FILE":"3614916","EPHEMERIS_TYPE":"0","SEMIMAJOR_AXIS":"6925.359","PERIOD":"95.592","ECCENTRICITY":"0.00013190","CLASSIFICATION_TYPE":"U","APOAPSIS":"548.138","EPOCH":"2022-10-15T01:18:57.573792","MEAN_MOTION_DOT":"0.00000974","ARG_OF_PERICENTER":"95.6266","SITE":"AFETR","MEAN_MOTION":"15.06396570","GP_ID":"215203143","INCLINATION":"53.0539","MEAN_ELEMENT_THEORY":"SGP4","OBJECT_ID":"2020-035AS","ELEMENT_SET_NO":"999","NORAD_CAT_ID":"45697","BSTAR":"0.00008426000000","MEAN_MOTION_DDOT":"0.0000000000000","PERIAPSIS":"546.311","TIME_SYSTEM":"UTC","COUNTRY_CODE":"US","REV_AT_EPOCH":"13201","DECAY_DATE":null,"TLE_LINE2":"2 45697  53.0539 210.5462 0001319  95.6266 264.4873 15.06396570132019","REF_FRAME":"TEME","TLE_LINE1":"1 45697U 20035AS  22288.05483303  .00000974  00000-0  84260-4 0  9993","OBJECT_NAME":"STARLINK-1351","RCS_SIZE":"LARGE","CENTER_NAME":"EARTH","OBJECT_TYPE":"PAYLOAD","LAUNCH_DATE":"2020-06-04"},{"SEMIMAJOR_AXIS":"6925.326","EPHEMERIS_TYPE":"0","MEAN_ANOMALY":"271.7369","RA_OF_ASC_NODE":"208.4982","FILE":"3615281","PERIOD":"95.592","CLASSIFICATION_TYPE":"U","ECCENTRICITY":"0.00015020","APOAPSIS":"548.232","EPOCH":"2022-10-15T12:10:26.122656","SITE":"AFETR","ARG_OF_PERICENTER":"88.3792","MEAN_MOTION_DOT":"0.00000979","INCLINATION":"53.0554","MEAN_ELEMENT_THEORY":"SGP4","GP_ID":"215217760","MEAN_MOTION":"15.06407240","BSTAR":"0.00008456600000","MEAN_MOTION_DDOT":"0.0000000000000","NORAD_CAT_ID":"45698","OBJECT_ID":"2020-035AT","ELEMENT_SET_NO":"999","TLE_LINE2":"2 45698  53.0554 208.4982 0001502  88.3792 271.7369 15.06407240131687","REF_FRAME":"TEME","REV_AT_EPOCH":"13168","DECAY_DATE":null,"OBJECT_NAME":"STARLINK-1370","TLE_LINE1":"1 45698U 20035AT  22288.50724679  .00000979  00000-0  84566-4 0  9992","PERIAPSIS":"546.151","TIME_SYSTEM":"UTC","COUNTRY_CODE":"US","OBJECT_TYPE":"PAYLOAD","LAUNCH_DATE":"2020-06-04","CENTER_NAME":"EARTH","RCS_SIZE":"LARGE"}];
